ORBCOMM-X               
1 21576U 91050C   24302.65696369  .00001695  00000+0  52068-3 0  9991
2 21576  98.3755   7.6573 0004132 151.4096 208.7321 14.42855399748725
ORBCOMM FM01            
1 23545U 95017A   24302.69939584  .00027338  00000+0  32505-2 0  9994
2 23545  69.9648 289.1712 0008161 307.1338  52.9067 14.84289566578084
ORBCOMM FM02            
1 23546U 95017B   24303.30311222  .00023595  00000+0  28174-2 0  9995
2 23546  69.9672 307.3455 0010383 306.6635  53.3561 14.84141926578117
ORBCOMM FM08            
1 25112U 97084A   24303.55610074  .00008077  00000+0  23758-2 0  9997
2 25112  45.0153  33.7144 0007314 182.1038 177.9783 14.44061435408186
ORBCOMM FM10            
1 25113U 97084B   24303.57631539  .00007140  00000+0  21117-2 0  9996
2 25113  45.0165  35.6390 0004232 160.0824 200.0192 14.43923968408176
ORBCOMM FM11            
1 25114U 97084C   24303.54361126  .00006736  00000+0  20026-2 0  9994
2 25114  45.0149  36.0407 0005006 156.0920 204.0164 14.43731713408151
ORBCOMM FM12            
1 25115U 97084D   24303.57702410  .00007631  00000+0  22641-2 0  9993
2 25115  45.0157  35.6366 0004112 161.4717 198.6284 14.43710031408163
ORBCOMM FM09            
1 25116U 97084E   24303.52417275  .00007476  00000+0  22216-2 0  9996
2 25116  45.0161  36.6366 0004584 138.2872 221.8329 14.43646861408154
