<?xml version="1.0" encoding="UTF-8"?>
<ndm xmlns:xsi="http://www.w3.org/2001/XMLSchema-instance" xsi:noNamespaceSchemaLocation="https://sanaregistry.org/r/ndmxml_unqualified/ndmxml-2.0.0-master-2.0.xsd">
<omm id="CCSDS_OMM_VERS" version="2.0">
<header><CREATION_DATE/><ORIGINATOR/></header><body><segment><metadata><OBJECT_NAME>ORBCOMM-X</OBJECT_NAME><OBJECT_ID>1991-050C</OBJECT_ID><CENTER_NAME>EARTH</CENTER_NAME><REF_FRAME>TEME</REF_FRAME><TIME_SYSTEM>UTC</TIME_SYSTEM><MEAN_ELEMENT_THEORY>SGP4</MEAN_ELEMENT_THEORY></metadata><data><meanElements><EPOCH>2024-10-28T15:46:01.662816</EPOCH><MEAN_MOTION>14.42855399</MEAN_MOTION><ECCENTRICITY>.0004132</ECCENTRICITY><INCLINATION>98.3755</INCLINATION><RA_OF_ASC_NODE>7.6573</RA_OF_ASC_NODE><ARG_OF_PERICENTER>151.4096</ARG_OF_PERICENTER><MEAN_ANOMALY>208.7321</MEAN_ANOMALY></meanElements><tleParameters><EPHEMERIS_TYPE>0</EPHEMERIS_TYPE><CLASSIFICATION_TYPE>U</CLASSIFICATION_TYPE><NORAD_CAT_ID>21576</NORAD_CAT_ID><ELEMENT_SET_NO>999</ELEMENT_SET_NO><REV_AT_EPOCH>74872</REV_AT_EPOCH><BSTAR>.52068E-3</BSTAR><MEAN_MOTION_DOT>.1695E-4</MEAN_MOTION_DOT><MEAN_MOTION_DDOT>0</MEAN_MOTION_DDOT></tleParameters></data></segment></body></omm>
<omm id="CCSDS_OMM_VERS" version="2.0">
<header><CREATION_DATE/><ORIGINATOR/></header><body><segment><metadata><OBJECT_NAME>ORBCOMM FM01</OBJECT_NAME><OBJECT_ID>1995-017A</OBJECT_ID><CENTER_NAME>EARTH</CENTER_NAME><REF_FRAME>TEME</REF_FRAME><TIME_SYSTEM>UTC</TIME_SYSTEM><MEAN_ELEMENT_THEORY>SGP4</MEAN_ELEMENT_THEORY></metadata><data><meanElements><EPOCH>2024-10-28T16:47:07.800576</EPOCH><MEAN_MOTION>14.84289566</MEAN_MOTION><ECCENTRICITY>.0008161</ECCENTRICITY><INCLINATION>69.9648</INCLINATION><RA_OF_ASC_NODE>289.1712</RA_OF_ASC_NODE><ARG_OF_PERICENTER>307.1338</ARG_OF_PERICENTER><MEAN_ANOMALY>52.9067</MEAN_ANOMALY></meanElements><tleParameters><EPHEMERIS_TYPE>0</EPHEMERIS_TYPE><CLASSIFICATION_TYPE>U</CLASSIFICATION_TYPE><NORAD_CAT_ID>23545</NORAD_CAT_ID><ELEMENT_SET_NO>999</ELEMENT_SET_NO><REV_AT_EPOCH>57808</REV_AT_EPOCH><BSTAR>.32505E-2</BSTAR><MEAN_MOTION_DOT>.27338E-3</MEAN_MOTION_DOT><MEAN_MOTION_DDOT>0</MEAN_MOTION_DDOT></tleParameters></data></segment></body></omm>
<omm id="CCSDS_OMM_VERS" version="2.0">
<header><CREATION_DATE/><ORIGINATOR/></header><body><segment><metadata><OBJECT_NAME>ORBCOMM FM02</OBJECT_NAME><OBJECT_ID>1995-017B</OBJECT_ID><CENTER_NAME>EARTH</CENTER_NAME><REF_FRAME>TEME</REF_FRAME><TIME_SYSTEM>UTC</TIME_SYSTEM><MEAN_ELEMENT_THEORY>SGP4</MEAN_ELEMENT_THEORY></metadata><data><meanElements><EPOCH>2024-10-29T07:16:28.895808</EPOCH><MEAN_MOTION>14.84141926</MEAN_MOTION><ECCENTRICITY>.0010383</ECCENTRICITY><INCLINATION>69.9672</INCLINATION><RA_OF_ASC_NODE>307.3455</RA_OF_ASC_NODE><ARG_OF_PERICENTER>306.6635</ARG_OF_PERICENTER><MEAN_ANOMALY>53.3561</MEAN_ANOMALY></meanElements><tleParameters><EPHEMERIS_TYPE>0</EPHEMERIS_TYPE><CLASSIFICATION_TYPE>U</CLASSIFICATION_TYPE><NORAD_CAT_ID>23546</NORAD_CAT_ID><ELEMENT_SET_NO>999</ELEMENT_SET_NO><REV_AT_EPOCH>57811</REV_AT_EPOCH><BSTAR>.28174E-2</BSTAR><MEAN_MOTION_DOT>.23595E-3</MEAN_MOTION_DOT><MEAN_MOTION_DDOT>0</MEAN_MOTION_DDOT></tleParameters></data></segment></body></omm>
<omm id="CCSDS_OMM_VERS" version="2.0">
<header><CREATION_DATE/><ORIGINATOR/></header><body><segment><metadata><OBJECT_NAME>ORBCOMM FM08</OBJECT_NAME><OBJECT_ID>1997-084A</OBJECT_ID><CENTER_NAME>EARTH</CENTER_NAME><REF_FRAME>TEME</REF_FRAME><TIME_SYSTEM>UTC</TIME_SYSTEM><MEAN_ELEMENT_THEORY>SGP4</MEAN_ELEMENT_THEORY></metadata><data><meanElements><EPOCH>2024-10-29T13:20:47.103936</EPOCH><MEAN_MOTION>14.44061435</MEAN_MOTION><ECCENTRICITY>.0007314</ECCENTRICITY><INCLINATION>45.0153</INCLINATION><RA_OF_ASC_NODE>33.7144</RA_OF_ASC_NODE><ARG_OF_PERICENTER>182.1038</ARG_OF_PERICENTER><MEAN_ANOMALY>177.9783</MEAN_ANOMALY></meanElements><tleParameters><EPHEMERIS_TYPE>0</EPHEMERIS_TYPE><CLASSIFICATION_TYPE>U</CLASSIFICATION_TYPE><NORAD_CAT_ID>25112</NORAD_CAT_ID><ELEMENT_SET_NO>999</ELEMENT_SET_NO><REV_AT_EPOCH>40818</REV_AT_EPOCH><BSTAR>.23758E-2</BSTAR><MEAN_MOTION_DOT>.8077E-4</MEAN_MOTION_DOT><MEAN_MOTION_DDOT>0</MEAN_MOTION_DDOT></tleParameters></data></segment></body></omm>
<omm id="CCSDS_OMM_VERS" version="2.0">
<header><CREATION_DATE/><ORIGINATOR/></header><body><segment><metadata><OBJECT_NAME>ORBCOMM FM10</OBJECT_NAME><OBJECT_ID>1997-084B</OBJECT_ID><CENTER_NAME>EARTH</CENTER_NAME><REF_FRAME>TEME</REF_FRAME><TIME_SYSTEM>UTC</TIME_SYSTEM><MEAN_ELEMENT_THEORY>SGP4</MEAN_ELEMENT_THEORY></metadata><data><meanElements><EPOCH>2024-10-29T13:49:53.649696</EPOCH><MEAN_MOTION>14.43923968</MEAN_MOTION><ECCENTRICITY>.0004232</ECCENTRICITY><INCLINATION>45.0165</INCLINATION><RA_OF_ASC_NODE>35.6390</RA_OF_ASC_NODE><ARG_OF_PERICENTER>160.0824</ARG_OF_PERICENTER><MEAN_ANOMALY>200.0192</MEAN_ANOMALY></meanElements><tleParameters><EPHEMERIS_TYPE>0</EPHEMERIS_TYPE><CLASSIFICATION_TYPE>U</CLASSIFICATION_TYPE><NORAD_CAT_ID>25113</NORAD_CAT_ID><ELEMENT_SET_NO>999</ELEMENT_SET_NO><REV_AT_EPOCH>40817</REV_AT_EPOCH><BSTAR>.21117E-2</BSTAR><MEAN_MOTION_DOT>.714E-4</MEAN_MOTION_DOT><MEAN_MOTION_DDOT>0</MEAN_MOTION_DDOT></tleParameters></data></segment></body></omm>
<omm id="CCSDS_OMM_VERS" version="2.0">
<header><CREATION_DATE/><ORIGINATOR/></header><body><segment><metadata><OBJECT_NAME>ORBCOMM FM11</OBJECT_NAME><OBJECT_ID>1997-084C</OBJECT_ID><CENTER_NAME>EARTH</CENTER_NAME><REF_FRAME>TEME</REF_FRAME><TIME_SYSTEM>UTC</TIME_SYSTEM><MEAN_ELEMENT_THEORY>SGP4</MEAN_ELEMENT_THEORY></metadata><data><meanElements><EPOCH>2024-10-29T13:02:48.012864</EPOCH><MEAN_MOTION>14.43731713</MEAN_MOTION><ECCENTRICITY>.0005006</ECCENTRICITY><INCLINATION>45.0149</INCLINATION><RA_OF_ASC_NODE>36.0407</RA_OF_ASC_NODE><ARG_OF_PERICENTER>156.0920</ARG_OF_PERICENTER><MEAN_ANOMALY>204.0164</MEAN_ANOMALY></meanElements><tleParameters><EPHEMERIS_TYPE>0</EPHEMERIS_TYPE><CLASSIFICATION_TYPE>U</CLASSIFICATION_TYPE><NORAD_CAT_ID>25114</NORAD_CAT_ID><ELEMENT_SET_NO>999</ELEMENT_SET_NO><REV_AT_EPOCH>40815</REV_AT_EPOCH><BSTAR>.20026E-2</BSTAR><MEAN_MOTION_DOT>.6736E-4</MEAN_MOTION_DOT><MEAN_MOTION_DDOT>0</MEAN_MOTION_DDOT></tleParameters></data></segment></body></omm>
<omm id="CCSDS_OMM_VERS" version="2.0">
<header><CREATION_DATE/><ORIGINATOR/></header><body><segment><metadata><OBJECT_NAME>ORBCOMM FM12</OBJECT_NAME><OBJECT_ID>1997-084D</OBJECT_ID><CENTER_NAME>EARTH</CENTER_NAME><REF_FRAME>TEME</REF_FRAME><TIME_SYSTEM>UTC</TIME_SYSTEM><MEAN_ELEMENT_THEORY>SGP4</MEAN_ELEMENT_THEORY></metadata><data><meanElements><EPOCH>2024-10-29T13:50:54.882240</EPOCH><MEAN_MOTION>14.43710031</MEAN_MOTION><ECCENTRICITY>.0004112</ECCENTRICITY><INCLINATION>45.0157</INCLINATION><RA_OF_ASC_NODE>35.6366</RA_OF_ASC_NODE><ARG_OF_PERICENTER>161.4717</ARG_OF_PERICENTER><MEAN_ANOMALY>198.6284</MEAN_ANOMALY></meanElements><tleParameters><EPHEMERIS_TYPE>0</EPHEMERIS_TYPE><CLASSIFICATION_TYPE>U</CLASSIFICATION_TYPE><NORAD_CAT_ID>25115</NORAD_CAT_ID><ELEMENT_SET_NO>999</ELEMENT_SET_NO><REV_AT_EPOCH>40816</REV_AT_EPOCH><BSTAR>.22641E-2</BSTAR><MEAN_MOTION_DOT>.7631E-4</MEAN_MOTION_DOT><MEAN_MOTION_DDOT>0</MEAN_MOTION_DDOT></tleParameters></data></segment></body></omm>
<omm id="CCSDS_OMM_VERS" version="2.0">
<header><CREATION_DATE/><ORIGINATOR/></header><body><segment><metadata><OBJECT_NAME>ORBCOMM FM09</OBJECT_NAME><OBJECT_ID>1997-084E</OBJECT_ID><CENTER_NAME>EARTH</CENTER_NAME><REF_FRAME>TEME</REF_FRAME><TIME_SYSTEM>UTC</TIME_SYSTEM><MEAN_ELEMENT_THEORY>SGP4</MEAN_ELEMENT_THEORY></metadata><data><meanElements><EPOCH>2024-10-29T12:34:48.525600</EPOCH><MEAN_MOTION>14.43646861</MEAN_MOTION><ECCENTRICITY>.0004584</ECCENTRICITY><INCLINATION>45.0161</INCLINATION><RA_OF_ASC_NODE>36.6366</RA_OF_ASC_NODE><ARG_OF_PERICENTER>138.2872</ARG_OF_PERICENTER><MEAN_ANOMALY>221.8329</MEAN_ANOMALY></meanElements><tleParameters><EPHEMERIS_TYPE>0</EPHEMERIS_TYPE><CLASSIFICATION_TYPE>U</CLASSIFICATION_TYPE><NORAD_CAT_ID>25116</NORAD_CAT_ID><ELEMENT_SET_NO>999</ELEMENT_SET_NO><REV_AT_EPOCH>40815</REV_AT_EPOCH><BSTAR>.22216E-2</BSTAR><MEAN_MOTION_DOT>.7476E-4</MEAN_MOTION_DOT><MEAN_MOTION_DDOT>0</MEAN_MOTION_DDOT></tleParameters></data></segment></body></omm>

</ndm>
